start=new Date('2023-05-17T00:00:00.000Z').valueOf();
sats=[{"GP_ID":"231998905","BSTAR":"0.00007977300000","INCLINATION":"53.2161","PERIAPSIS":"539.121","TLE_LINE1":"1 51148U 22005AW  23136.70009299  .00000982  00000-0  79773-4 0  9995","SEMIMAJOR_AXIS":"6917.875","NORAD_CAT_ID":"51148","LAUNCH_DATE":"2022-01-19","CENTER_NAME":"EARTH","ECCENTRICITY":"0.00008940","EPHEMERIS_TYPE":"0","RA_OF_ASC_NODE":"243.9530","OBJECT_TYPE":"PAYLOAD","MEAN_MOTION_DOT":"0.00000982","REV_AT_EPOCH":"7340","SITE":"AFETR","MEAN_MOTION":"15.08841900","FILE":"3909742","EPOCH":"2023-05-16T16:48:08.034336","OBJECT_ID":"2022-005AW","APOAPSIS":"540.358","ARG_OF_PERICENTER":"92.8640","MEAN_ANOMALY":"267.2455","TLE_LINE2":"2 51148  53.2161 243.9530 0000894  92.8640 267.2455 15.08841900 73406","COUNTRY_CODE":"US","MEAN_MOTION_DDOT":"0.0000000000000","OBJECT_NAME":"STARLINK-3359","MEAN_ELEMENT_THEORY":"SGP4","REF_FRAME":"TEME","TIME_SYSTEM":"UTC","ELEMENT_SET_NO":"999","PERIOD":"95.437","CLASSIFICATION_TYPE":"U","RCS_SIZE":"LARGE","DECAY_DATE":null},{"FILE":"3909337","EPOCH":"2023-05-16T13:30:41.446080","OBJECT_ID":"2022-005AX","APOAPSIS":"540.483","MEAN_MOTION":"15.08836651","REV_AT_EPOCH":"7449","SITE":"AFETR","OBJECT_TYPE":"PAYLOAD","RA_OF_ASC_NODE":"244.5604","MEAN_MOTION_DOT":"0.00000314","EPHEMERIS_TYPE":"0","ECCENTRICITY":"0.00010520","LAUNCH_DATE":"2022-01-19","CENTER_NAME":"EARTH","NORAD_CAT_ID":"51149","SEMIMAJOR_AXIS":"6917.891","PERIAPSIS":"539.028","TLE_LINE1":"1 51149U 22005AX  23136.56297970  .00000314  00000-0  37803-4 0  9992","BSTAR":"0.00003780300000","INCLINATION":"53.2164","GP_ID":"231939730","RCS_SIZE":"LARGE","DECAY_DATE":null,"CLASSIFICATION_TYPE":"U","ELEMENT_SET_NO":"999","PERIOD":"95.438","TIME_SYSTEM":"UTC","MEAN_ELEMENT_THEORY":"SGP4","REF_FRAME":"TEME","OBJECT_NAME":"STARLINK-3360","MEAN_MOTION_DDOT":"0.0000000000000","COUNTRY_CODE":"US","TLE_LINE2":"2 51149  53.2164 244.5604 0001052  99.8408 260.2703 15.08836651 74491","MEAN_ANOMALY":"260.2703","ARG_OF_PERICENTER":"99.8408"},{"EPHEMERIS_TYPE":"0","ECCENTRICITY":"0.00010990","CENTER_NAME":"EARTH","LAUNCH_DATE":"2022-01-19","FILE":"3909742","EPOCH":"2023-05-16T15:40:34.212864","APOAPSIS":"540.504","OBJECT_ID":"2022-005AY","MEAN_MOTION":"15.08840683","REV_AT_EPOCH":"7354","SITE":"AFETR","RA_OF_ASC_NODE":"234.1661","OBJECT_TYPE":"PAYLOAD","MEAN_MOTION_DOT":"0.00001354","GP_ID":"231998404","NORAD_CAT_ID":"51150","SEMIMAJOR_AXIS":"6917.878","PERIAPSIS":"538.983","TLE_LINE1":"1 51150U 22005AY  23136.65317376  .00001354  00000-0  10314-3 0  9999","BSTAR":"0.00010314000000","INCLINATION":"53.2162","TIME_SYSTEM":"UTC","MEAN_ELEMENT_THEORY":"SGP4","REF_FRAME":"TEME","RCS_SIZE":"LARGE","DECAY_DATE":null,"CLASSIFICATION_TYPE":"U","PERIOD":"95.438","ELEMENT_SET_NO":"999","TLE_LINE2":"2 51150  53.2162 234.1661 0001099  86.5936 273.5182 15.08840683 73542","MEAN_ANOMALY":"273.5182","ARG_OF_PERICENTER":"86.5936","OBJECT_NAME":"STARLINK-3357","MEAN_MOTION_DDOT":"0.0000000000000","COUNTRY_CODE":"US"},{"GP_ID":"231998654","SEMIMAJOR_AXIS":"6913.534","NORAD_CAT_ID":"51151","INCLINATION":"53.2144","BSTAR":"-0.03303700000000","PERIAPSIS":"534.406","TLE_LINE1":"1 51151U 22005AZ  23136.91667824 -.00514885  00000-0 -33037-1 0  9990","EPHEMERIS_TYPE":"0","CENTER_NAME":"EARTH","LAUNCH_DATE":"2022-01-19","ECCENTRICITY":"0.00014370","MEAN_MOTION":"15.10263069","APOAPSIS":"536.393","OBJECT_ID":"2022-005AZ","FILE":"3909742","EPOCH":"2023-05-16T22:00:00.999936","MEAN_MOTION_DOT":"-0.00514885","RA_OF_ASC_NODE":"242.9521","OBJECT_TYPE":"PAYLOAD","SITE":"AFETR","REV_AT_EPOCH":"130","MEAN_ANOMALY":"92.2235","TLE_LINE2":"2 51151  53.2144 242.9521 0001437  81.3939  92.2235 15.10263069  1307","ARG_OF_PERICENTER":"81.3939","MEAN_MOTION_DDOT":"0.0000000000000","OBJECT_NAME":"STARLINK-3361","COUNTRY_CODE":"US","REF_FRAME":"TEME","MEAN_ELEMENT_THEORY":"SGP4","TIME_SYSTEM":"UTC","CLASSIFICATION_TYPE":"U","DECAY_DATE":null,"RCS_SIZE":"LARGE","PERIOD":"95.348","ELEMENT_SET_NO":"999"},{"TIME_SYSTEM":"UTC","REF_FRAME":"TEME","MEAN_ELEMENT_THEORY":"SGP4","PERIOD":"95.458","ELEMENT_SET_NO":"999","DECAY_DATE":null,"RCS_SIZE":"LARGE","CLASSIFICATION_TYPE":"U","ARG_OF_PERICENTER":"66.7230","TLE_LINE2":"2 51152  53.2167 244.5909 0001499  66.7230 293.3920 15.08521985 74496","MEAN_ANOMALY":"293.3920","COUNTRY_CODE":"US","OBJECT_NAME":"STARLINK-3364","MEAN_MOTION_DDOT":"0.0000000000000","ECCENTRICITY":"0.00014990","CENTER_NAME":"EARTH","LAUNCH_DATE":"2022-01-19","EPHEMERIS_TYPE":"0","SITE":"AFETR","REV_AT_EPOCH":"7449","MEAN_MOTION_DOT":"0.00056129","OBJECT_TYPE":"PAYLOAD","RA_OF_ASC_NODE":"244.5909","OBJECT_ID":"2022-005BA","APOAPSIS":"541.755","EPOCH":"2023-05-16T13:26:39.447456","FILE":"3909325","MEAN_MOTION":"15.08521985","GP_ID":"231939767","TLE_LINE1":"1 51152U 22005BA  23136.56017879  .00056129  00000-0  35475-2 0  9990","PERIAPSIS":"539.680","INCLINATION":"53.2167","BSTAR":"0.00354750000000","NORAD_CAT_ID":"51152","SEMIMAJOR_AXIS":"6918.853"},{"SITE":"AFETR","REV_AT_EPOCH":"7166","MEAN_MOTION_DOT":"0.00001264","OBJECT_TYPE":"PAYLOAD","RA_OF_ASC_NODE":"213.0243","APOAPSIS":"540.364","OBJECT_ID":"2022-010E","EPOCH":"2023-05-16T21:42:10.957536","FILE":"3909742","MEAN_MOTION":"15.08840811","ECCENTRICITY":"0.00008980","CENTER_NAME":"EARTH","LAUNCH_DATE":"2022-02-03","EPHEMERIS_TYPE":"0","PERIAPSIS":"539.122","TLE_LINE1":"1 51460U 22010E   23136.90429349  .00001264  00000-0  97461-4 0  9990","INCLINATION":"53.2166","BSTAR":"0.00009746100000","NORAD_CAT_ID":"51460","SEMIMAJOR_AXIS":"6917.878","GP_ID":"231999159","PERIOD":"95.438","ELEMENT_SET_NO":"999","DECAY_DATE":null,"RCS_SIZE":"LARGE","CLASSIFICATION_TYPE":"U","TIME_SYSTEM":"UTC","REF_FRAME":"TEME","MEAN_ELEMENT_THEORY":"SGP4","COUNTRY_CODE":"US","OBJECT_NAME":"STARLINK-3167","MEAN_MOTION_DDOT":"0.0000000000000","ARG_OF_PERICENTER":"81.0846","TLE_LINE2":"2 51460  53.2166 213.0243 0000898  81.0846 279.0248 15.08840811 71666","MEAN_ANOMALY":"279.0248"},{"PERIOD":"95.438","ELEMENT_SET_NO":"999","CLASSIFICATION_TYPE":"U","DECAY_DATE":null,"RCS_SIZE":"LARGE","REF_FRAME":"TEME","MEAN_ELEMENT_THEORY":"SGP4","TIME_SYSTEM":"UTC","COUNTRY_CODE":"US","MEAN_MOTION_DDOT":"0.0000000000000","OBJECT_NAME":"STARLINK-3181","ARG_OF_PERICENTER":"104.1290","MEAN_ANOMALY":"255.9805","TLE_LINE2":"2 51461  53.2154 214.7290 0000924 104.1290 255.9805 15.08839779 71601","MEAN_MOTION_DOT":"0.00002487","OBJECT_TYPE":"PAYLOAD","RA_OF_ASC_NODE":"214.7290","SITE":"AFETR","REV_AT_EPOCH":"7160","MEAN_MOTION":"15.08839779","APOAPSIS":"540.385","OBJECT_ID":"2022-010F","EPOCH":"2023-05-16T12:36:22.076928","FILE":"3909472","LAUNCH_DATE":"2022-02-03","CENTER_NAME":"EARTH","ECCENTRICITY":"0.00009240","EPHEMERIS_TYPE":"0","INCLINATION":"53.2154","BSTAR":"0.00017431000000","TLE_LINE1":"1 51461U 22010F   23136.52525552  .00002487  00000-0  17431-3 0  9998","PERIAPSIS":"539.107","SEMIMAJOR_AXIS":"6917.881","NORAD_CAT_ID":"51461","GP_ID":"231965434"},{"MEAN_MOTION_DDOT":"0.0000000000000","OBJECT_NAME":"STARLINK-3166","COUNTRY_CODE":"US","MEAN_ANOMALY":"254.7681","TLE_LINE2":"2 51462  53.2153 214.7516 0001058 105.3428 254.7681 15.08840165 71607","ARG_OF_PERICENTER":"105.3428","CLASSIFICATION_TYPE":"U","RCS_SIZE":"LARGE","DECAY_DATE":null,"ELEMENT_SET_NO":"999","PERIOD":"95.438","MEAN_ELEMENT_THEORY":"SGP4","REF_FRAME":"TEME","TIME_SYSTEM":"UTC","SEMIMAJOR_AXIS":"6917.880","NORAD_CAT_ID":"51462","BSTAR":"0.00010148000000","INCLINATION":"53.2153","TLE_LINE1":"1 51462U 22010G   23136.52253451  .00001328  00000-0  10148-3 0  9996","PERIAPSIS":"539.013","GP_ID":"231966180","MEAN_MOTION":"15.08840165","FILE":"3909472","EPOCH":"2023-05-16T12:32:26.981664","OBJECT_ID":"2022-010G","APOAPSIS":"540.477","OBJECT_TYPE":"PAYLOAD","RA_OF_ASC_NODE":"214.7516","MEAN_MOTION_DOT":"0.00001328","REV_AT_EPOCH":"7160","SITE":"AFETR","EPHEMERIS_TYPE":"0","LAUNCH_DATE":"2022-02-03","CENTER_NAME":"EARTH","ECCENTRICITY":"0.00010580"},{"PERIOD":"95.438","ELEMENT_SET_NO":"999","RCS_SIZE":"LARGE","DECAY_DATE":null,"CLASSIFICATION_TYPE":"U","TIME_SYSTEM":"UTC","MEAN_ELEMENT_THEORY":"SGP4","REF_FRAME":"TEME","COUNTRY_CODE":"US","OBJECT_NAME":"STARLINK-3419","MEAN_MOTION_DDOT":"0.0000000000000","ARG_OF_PERICENTER":"92.1370","TLE_LINE2":"2 51463  53.2165 214.2666 0001004  92.1370 267.9737 15.08839214 71311","MEAN_ANOMALY":"267.9737","REV_AT_EPOCH":"7131","SITE":"AFETR","RA_OF_ASC_NODE":"214.2666","OBJECT_TYPE":"PAYLOAD","MEAN_MOTION_DOT":"0.00001043","FILE":"3909742","EPOCH":"2023-05-16T15:04:44.619744","APOAPSIS":"540.442","OBJECT_ID":"2022-010H","MEAN_MOTION":"15.08839214","ECCENTRICITY":"0.00010040","CENTER_NAME":"EARTH","LAUNCH_DATE":"2022-02-03","EPHEMERIS_TYPE":"0","PERIAPSIS":"539.053","TLE_LINE1":"1 51463U 22010H   23136.62829421  .00001043  00000-0  83615-4 0  9998","BSTAR":"0.00008361500000","INCLINATION":"53.2165","NORAD_CAT_ID":"51463","SEMIMAJOR_AXIS":"6917.883","GP_ID":"231998909"},{"ARG_OF_PERICENTER":"88.7741","MEAN_ANOMALY":"271.3369","TLE_LINE2":"2 51464  53.2160 212.9913 0001030  88.7741 271.3369 15.08842633 72162","COUNTRY_CODE":"US","MEAN_MOTION_DDOT":"0.0000000000000","OBJECT_NAME":"STARLINK-3189","MEAN_ELEMENT_THEORY":"SGP4","REF_FRAME":"TEME","TIME_SYSTEM":"UTC","ELEMENT_SET_NO":"999","PERIOD":"95.437","CLASSIFICATION_TYPE":"U","RCS_SIZE":"LARGE","DECAY_DATE":null,"GP_ID":"231999659","BSTAR":"0.00003621000000","INCLINATION":"53.2160","TLE_LINE1":"1 51464U 22010J   23136.91165346  .00000289  00000-0  36210-4 0  9990","PERIAPSIS":"539.025","SEMIMAJOR_AXIS":"6917.872","NORAD_CAT_ID":"51464","CENTER_NAME":"EARTH","LAUNCH_DATE":"2022-02-03","ECCENTRICITY":"0.00010300","EPHEMERIS_TYPE":"0","OBJECT_TYPE":"PAYLOAD","RA_OF_ASC_NODE":"212.9913","MEAN_MOTION_DOT":"0.00000289","REV_AT_EPOCH":"7216","SITE":"AFETR","MEAN_MOTION":"15.08842633","EPOCH":"2023-05-16T21:52:46.858944","FILE":"3909742","OBJECT_ID":"2022-010J","APOAPSIS":"540.450"}];
